SAUDISAT 1C             
1 27607U 02058C   22290.39722883  .00001422  00000+0  21389-3 0  9998
2 27607  64.5537 288.6868 0081640 271.2451  87.9300 14.76329261 66371
SAUDISAT 2              
1 28371U 04025F   22291.48737642 -.00000019  00000+0  66770-5 0  9990
2 28371  98.3926 248.5655 0026562  86.1595 274.2610 14.54623249971177
SAUDISAT 3              
1 31118U 07012B   22291.35958721  .00000348  00000+0  66994-4 0  9992
2 31118  97.9815 235.5019 0015520 159.5638 200.6192 14.69392503831206
PISAT                   
1 41784U 16059B   22291.09904911  .00000751  00000+0  15087-3 0  9990
2 41784  97.9032 329.6060 0032628 139.9630 220.3987 14.64052559323633
FLYING LAPTOP           
1 42831U 17042G   22291.06852851  .00002119  00000+0  21380-3 0  9992
2 42831  97.4081 138.3267 0012699 322.4336  37.6003 14.92024502286373
SALSAT                  
1 46495U 20068K   22290.78582273  .00004001  00000+0  28502-3 0  9995
2 46495  97.7395 232.2141 0015303 218.7012 141.3118 15.05091063112584
